{
  "hoodArray" : [
    {
      "Name": "Albany Park",
      "Borough": "Far North Side",
      "City": "Chicago",
      "State": "Illinois",
      "Zipcode": "Far North Side Zip"
    },
    {
      "Name": "Edgewater",
      "Borough": "Far North Side",
      "City": "Chicago",
      "State": "Illinois",
      "Zipcode": "Far North Side Zip"
    },
    {
      "Name": "Edison Park",
      "Borough": "Far North Side",
      "City": "Chicago",
      "State": "Illinois",
      "Zipcode": "Far North Side Zip"
    },
    {
      "Name": "Forest Glen",
      "Borough": "Far North Side",
      "City": "Chicago",
      "State": "Illinois",
      "Zipcode": "Far North Side Zip"
    },
    {
      "Name": "Jefferson Park",
      "Borough": "Far North Side",
      "City": "Chicago",
      "State": "Illinois",
      "Zipcode": "Far North Side Zip"
    },
    {
      "Name": "Lincoln Square",
      "Borough": "Far North Side",
      "City": "Chicago",
      "State": "Illinois",
      "Zipcode": "Far North Side Zip"
    },
    {
      "Name": "North Park",
      "Borough": "Far North Side",
      "City": "Chicago",
      "State": "Illinois",
      "Zipcode": "Far North Side Zip"
    },
    {
      "Name": "Norwood Park",
      "Borough": "Far North Side",
      "City": "Chicago",
      "State": "Illinois",
      "Zipcode": "Far North Side Zip"
    },
    {
      "Name": "O'Hare",
      "Borough": "Far North Side",
      "City": "Chicago",
      "State": "Illinois",
      "Zipcode": "Far North Side Zip"
    },
    {
      "Name": "Rodgers Park",
      "Borough": "Far North Side",
      "City": "Chicago",
      "State": "Illinois",
      "Zipcode": "Far North Side Zip"
    },
    {
      "Name": "Uptown",
      "Borough": "Far North Side",
      "City": "Chicago",
      "State": "Illinois",
      "Zipcode": "Far North Side Zip"
    },
    {
      "Name": "West Ridge",
      "Borough": "Far North Side",
      "City": "Chicago",
      "State": "Illinois",
      "Zipcode": "Far North Side Zip"
    },

    {
      "Name": "Avondale",
      "Borough": "North Side",
      "City": "Chicago",
      "State": "Illinois",
      "Zipcode": "North Side Zip"
    },
    {
      "Name": "Lakeview",
      "Borough": "North Side",
      "City": "Chicago",
      "State": "Illinois",
      "Zipcode": "North Side Zip"
    },
    {
      "Name": "Lincoln Park",
      "Borough": "North Side",
      "City": "Chicago",
      "State": "Illinois",
      "Zipcode": "North Side Zip"
    },
    {
      "Name": "Logan Square",
      "Borough": "North Side",
      "City": "Chicago",
      "State": "Illinois",
      "Zipcode": "North Side Zip"
    },
    {
      "Name": "North Center",
      "Borough": "North Side",
      "City": "Chicago",
      "State": "Illinois",
      "Zipcode": "North Side Zip"
    },

    {
      "Name": "Belmont Cragin",
      "Borough": "Northwest Side",
      "City": "Chicago",
      "State": "Illinois",
      "Zipcode": "Northwest Side Zip"
    },
    {
      "Name": "Dunning",
      "Borough": "Northwest Side",
      "City": "Chicago",
      "State": "Illinois",
      "Zipcode": "west Side Zip"
    },
    {
      "Name": "Hermosa",
      "Borough": "Northwest Side",
      "City": "Chicago",
      "State": "Illinois",
      "Zipcode": "Northwest Side Zip"
    },
    {
      "Name": "Irving Park",
      "Borough": "Northwest Side",
      "City": "Chicago",
      "State": "Illinois",
      "Zipcode": "Northwest Side Zip"
    },
    {
      "Name": "Portage Park",
      "Borough": "Northwest Side",
      "City": "Chicago",
      "State": "Illinois",
      "Zipcode": "Northwest Side Zip"
    },

    {
      "Name": "Loop",
      "Borough": "Central, Near North and Near South Side",
      "City": "Chicago",
      "State": "Illinois",
      "Zipcode": "Central, Near North and Near South Side Zip"
    },
    {
      "Name": "Near North Side",
      "Borough": "Central, Near North and Near South Side",
      "City": "Chicago",
      "State": "Illinois",
      "Zipcode": "Central, Near North and Near South Side Zip"
    },
    {
      "Name": "Near South Side",
      "Borough": "Central, Near North and Near South Side",
      "City": "Chicago",
      "State": "Illinois",
      "Zipcode": "Central, Near North and Near South Side Zip"
    },

    {
      "Name": "Austin",
      "Borough": "West and Near West Side",
      "City": "Chicago",
      "State": "Illinois",
      "Zipcode": "West and Near West Side Zip"
    },
    {
      "Name": "East Garfield Park",
      "Borough": "West and Near West Side",
      "City": "Chicago",
      "State": "Illinois",
      "Zipcode": "West and Near West Side Zip"
    },
    {
      "Name": "Humboldt Park",
      "Borough": "West and Near West Side",
      "City": "Chicago",
      "State": "Illinois",
      "Zipcode": "West and Near West Side Zip"
    },
    {
      "Name": "Lower West Side",
      "Borough": "West and Near West Side",
      "City": "Chicago",
      "State": "Illinois",
      "Zipcode": "West and Near West Side Zip"
    },
    {
      "Name": "Near West Side",
      "Borough": "West and Near West Side",
      "City": "Chicago",
      "State": "Illinois",
      "Zipcode": "West and Near West Side Zip"
    },
    {
      "Name": "North Lawndale",
      "Borough": "West and Near West Side",
      "City": "Chicago",
      "State": "Illinois",
      "Zipcode": "West and Near West Side Zip"
    },
    {
      "Name": "South Lawndale",
      "Borough": "West and Near West Side",
      "City": "Chicago",
      "State": "Illinois",
      "Zipcode": "West and Near West Side Zip"
    },
    {
      "Name": "West Garfield Park",
      "Borough": "West and Near West Side",
      "City": "Chicago",
      "State": "Illinois",
      "Zipcode": "West and Near West Side Zip"
    },
    {
      "Name": "West Town",
      "Borough": "West and Near West Side",
      "City": "Chicago",
      "State": "Illinois",
      "Zipcode": "West and Near West Side Zip"
    },
    
    {
      "Name": "Archer Heights",
      "Borough": "Southwest Side",
      "City": "Chicago",
      "State": "Illinois",
      "Zipcode": "Southwest Side Zip"
    },
    {
      "Name": "Brighton Park",
      "Borough": "Southwest Side",
      "City": "Chicago",
      "State": "Illinois",
      "Zipcode": "Southwest Side Zip"
    },
    {
      "Name": "Chicago Lawn",
      "Borough": "Southwest Side",
      "City": "Chicago",
      "State": "Illinois",
      "Zipcode": "Southwest Side Zip"
    },
    {
      "Name": "Clearing",
      "Borough": "Southwest Side",
      "City": "Chicago",
      "State": "Illinois",
      "Zipcode": "Southwest Side Zip"
    },
    {
      "Name": "Englewood",
      "Borough": "Southwest Side",
      "City": "Chicago",
      "State": "Illinois",
      "Zipcode": "Southwest Side Zip"
    },
    {
      "Name": "Gage Park",
      "Borough": "Southwest Side",
      "City": "Chicago",
      "State": "Illinois",
      "Zipcode": "Southwest Side Zip"
    },
    {
      "Name": "Garfield Ridge",
      "Borough": "Southwest Side",
      "City": "Chicago",
      "State": "Illinois",
      "Zipcode": "Southwest Side Zip"
    },
    {
      "Name": "McKinley Park",
      "Borough": "Southwest Side",
      "City": "Chicago",
      "State": "Illinois",
      "Zipcode": "Southwest Side Zip"
    },
    {
      "Name": "New City",
      "Borough": "Southwest Side",
      "City": "Chicago",
      "State": "Illinois",
      "Zipcode": "Southwest Side Zip"
    },
    {
      "Name": "West Elsdon",
      "Borough": "Southwest Side",
      "City": "Chicago",
      "State": "Illinois",
      "Zipcode": "Southwest Side Zip"
    },
    {
      "Name": "West Englewood",
      "Borough": "Southwest Side",
      "City": "Chicago",
      "State": "Illinois",
      "Zipcode": "Southwest Side Zip"
    },
    {
      "Name": "West Lawn",
      "Borough": "Southwest Side",
      "City": "Chicago",
      "State": "Illinois",
      "Zipcode": "Southwest Side Zip"
    },
    
    {
      "Name": "Armour Square",
      "Borough": "South Side",
      "City": "Chicago",
      "State": "Illinois",
      "Zipcode": "South Side Zip"
    },
    {
      "Name": "Bridgeport",
      "Borough": "South Side",
      "City": "Chicago",
      "State": "Illinois",
      "Zipcode": "South Side Zip"
    },
    {
      "Name": "Douglas",
      "Borough": "South Side",
      "City": "Chicago",
      "State": "Illinois",
      "Zipcode": "South Side Zip"
    },
    {
      "Name": "Fuller Park",
      "Borough": "South Side",
      "City": "Chicago",
      "State": "Illinois",
      "Zipcode": "South Side Zip"
    },
    {
      "Name": "Grand Boulevard",
      "Borough": "South Side",
      "City": "Chicago",
      "State": "Illinois",
      "Zipcode": "South Side Zip"
    },
    {
      "Name": "Greater Grand Crossing",
      "Borough": "South Side",
      "City": "Chicago",
      "State": "Illinois",
      "Zipcode": "South Side Zip"
    },
    {
      "Name": "Hyde Park",
      "Borough": "South Side",
      "City": "Chicago",
      "State": "Illinois",
      "Zipcode": "South Side Zip"
    },
    {
      "Name": "Kenwood",
      "Borough": "South Side",
      "City": "Chicago",
      "State": "Illinois",
      "Zipcode": "South Side Zip"
    },
    {
      "Name": "Oakland",
      "Borough": "South Side",
      "City": "Chicago",
      "State": "Illinois",
      "Zipcode": "South Side Zip"
    },
    {
      "Name": "South Shore",
      "Borough": "South Side",
      "City": "Chicago",
      "State": "Illinois",
      "Zipcode": "South Side Zip"
    },
    {
      "Name": "Washington Park",
      "Borough": "South Side",
      "City": "Chicago",
      "State": "Illinois",
      "Zipcode": "South Side Zip"
    },
    {
      "Name": "Woodlawn",
      "Borough": "South Side",
      "City": "Chicago",
      "State": "Illinois",
      "Zipcode": "South Side Zip"
    },
   
    {
      "Name": "Ashburn",
      "Borough": "Far Southwest Side",
      "City": "Chicago",
      "State": "Illinois",
      "Zipcode": "Far Southwest Side Zip"
    },
    {
      "Name": "Auburn Gresham",
      "Borough": "Far Southwest Side",
      "City": "Chicago",
      "State": "Illinois",
      "Zipcode": "Far Southwest Side Zip"
    },
    {
      "Name": "Beverly",
      "Borough": "Far Southwest Side",
      "City": "Chicago",
      "State": "Illinois",
      "Zipcode": "Far Southwest Side Zip"
    },
    {
      "Name": "Morgan Park",
      "Borough": "Far Southwest Side",
      "City": "Chicago",
      "State": "Illinois",
      "Zipcode": "Far Southwest Side Zip"
    },
    {
      "Name": "Mount Greenwood",
      "Borough": "Far Southwest Side",
      "City": "Chicago",
      "State": "Illinois",
      "Zipcode": "Far Southwest Side Zip"
    },
    {
      "Name": "Washington Heights",
      "Borough": "Far Southwest Side",
      "City": "Chicago",
      "State": "Illinois",
      "Zipcode": "Far Southwest Side Zip"
    },

    {
      "Name": "Avalon Park",
      "Borough": "Far South Side",
      "City": "Chicago",
      "State": "Illinois",
      "Zipcode": "Far South Side Zip"
    },
    {
      "Name": "Burnside",
      "Borough": "Far South Side",
      "City": "Chicago",
      "State": "Illinois",
      "Zipcode": "Far South Side Zip"
    },
    {
      "Name": "Calumet Heights",
      "Borough": "Far South Side",
      "City": "Chicago",
      "State": "Illinois",
      "Zipcode": "Far South Side Zip"
    },
    {
      "Name": "Chatham",
      "Borough": "Far South Side",
      "City": "Chicago",
      "State": "Illinois",
      "Zipcode": "Far South Side Zip"
    },
    {
      "Name": "East Side",
      "Borough": "Far South Side",
      "City": "Chicago",
      "State": "Illinois",
      "Zipcode": "Far South Side Zip"
    },
    {
      "Name": "Hegewisch",
      "Borough": "Far South Side",
      "City": "Chicago",
      "State": "Illinois",
      "Zipcode": "Far South Side Zip"
    },
    {
      "Name": "Pullman",
      "Borough": "Far South Side",
      "City": "Chicago",
      "State": "Illinois",
      "Zipcode": "Far South Side Zip"
    },
    {
      "Name": "Riverdale",
      "Borough": "Far South Side",
      "City": "Chicago",
      "State": "Illinois",
      "Zipcode": "Far South Side Zip"
    },
    {
      "Name": "Roseland",
      "Borough": "Far South Side",
      "City": "Chicago",
      "State": "Illinois",
      "Zipcode": "Far South Side Zip"
    },
    {
      "Name": "South Chicago",
      "Borough": "Far South Side",
      "City": "Chicago",
      "State": "Illinois",
      "Zipcode": "Far South Side Zip"
    },
    {
      "Name": "South Deering",
      "Borough": "Far South Side",
      "City": "Chicago",
      "State": "Illinois",
      "Zipcode": "Far South Side Zip"
    },
    {
      "Name": "West Pullman",
      "Borough": "Far South Side",
      "City": "Chicago",
      "State": "Illinois",
      "Zipcode": "Far South  ide Zip"
    },

    {
      "Name": "Port Ivory",
      "Borough": "Staten Island",
      "City": "New York",
      "State": "New York",
      "Zipcode": "Staten Island"
    },
    {
      "Name": "Dutch Kills",
      "Borough": "Queens",
      "City": "New York",
      "State": "New York",
      "Zipcode": "Queens"
    },
    {
      "Name": "Arlington",
      "Borough": "Staten Island",
      "City": "New York",
      "State": "New York",
      "Zipcode": "Staten Island"
    },
    {
      "Name": "Flushing Downtown",
      "Borough": "Queens",
      "City": "New York",
      "State": "New York",
      "Zipcode": "Queens"
    },
    {
      "Name": "Sandy Ground",
      "Borough": "Staten Island",
      "City": "New York",
      "State": "New York",
      "Zipcode": "Staten Island"
    },
    {
      "Name": "Bath Beach",
      "Borough": "Brooklyn",
      "City": "New York",
      "State": "New York",
      "Zipcode": "Brooklyn"
    },
    {
      "Name": "City Island",
      "Borough": "Bronx",
      "City": "New York",
      "State": "New York",
      "Zipcode": "Bronx"
    },
    {
      "Name": "Springfield Gardens",
      "Borough": "Queens",
      "City": "New York",
      "State": "New York",
      "Zipcode": "Queens"
    },
    {
      "Name": "Bay Terrace",
      "Borough": "Staten Island",
      "City": "New York",
      "State": "New York",
      "Zipcode": "Staten Island"
    },
    {
      "Name": "Hudson Square",
      "Borough": "Manhattan",
      "City": "New York",
      "State": "New York",
      "Zipcode": "Manhattan"
    },
    {
      "Name": "Prospect Lefferts Gardens",
      "Borough": "Brooklyn",
      "City": "New York",
      "State": "New York",
      "Zipcode": "Brooklyn"
    },
    {
      "Name": "Midtown South",
      "Borough": "Manhattan",
      "City": "New York",
      "State": "New York",
      "Zipcode": "Manhattan"
    },
    {
      "Name": "Lighthouse Hill",
      "Borough": "Staten Island",
      "City": "New York",
      "State": "New York",
      "Zipcode": "Staten Island"
    },
    {
      "Name": "Fieldston",
      "Borough": "Bronx",
      "City": "New York",
      "State": "New York",
      "Zipcode": "Bronx"
    },
    {
      "Name": "Woodhaven",
      "Borough": "Queens",
      "City": "New York",
      "State": "New York",
      "Zipcode": "Queens"
    },
    {
      "Name": "Ocean Parkway",
      "Borough": "Brooklyn",
      "City": "New York",
      "State": "New York",
      "Zipcode": "Brooklyn"
    },
    {
      "Name": "Midtown",
      "Borough": "Manhattan",
      "City": "New York",
      "State": "New York",
      "Zipcode": "Manhattan"
    },
    {
      "Name": "Whitestone",
      "Borough": "Queens",
      "City": "New York",
      "State": "New York",
      "Zipcode": "Queens"
    },
    {
      "Name": "Butler Manor",
      "Borough": "Staten Island",
      "City": "New York",
      "State": "New York",
      "Zipcode": "Staten Island"
    },
    {
      "Name": "Forest Hills",
      "Borough": "Queens",
      "City": "New York",
      "State": "New York",
      "Zipcode": "Queens"
    },
    {
      "Name": "Battery Park City",
      "Borough": "Manhattan",
      "City": "New York",
      "State": "New York",
      "Zipcode": "Manhattan"
    },
    {
      "Name": "Cambria Heights",
      "Borough": "Queens",
      "City": "New York",
      "State": "New York",
      "Zipcode": "Queens"
    },
    {
      "Name": "Gowanus",
      "Borough": "Brooklyn",
      "City": "New York",
      "State": "New York",
      "Zipcode": "Brooklyn"
    },
    {
      "Name": "Elmhurst",
      "Borough": "Queens",
      "City": "New York",
      "State": "New York",
      "Zipcode": "Queens"
    },
    {
      "Name": "Manhattan Valley",
      "Borough": "Manhattan",
      "City": "New York",
      "State": "New York",
      "Zipcode": "Manhattan"
    },
    {
      "Name": "Woodside",
      "Borough": "Queens",
      "City": "New York",
      "State": "New York",
      "Zipcode": "Queens"
    },
    {
      "Name": "Tompkins Park North",
      "Borough": "Brooklyn",
      "City": "New York",
      "State": "New York",
      "Zipcode": "Brooklyn"
    },
    {
      "Name": "Wall Street",
      "Borough": "Manhattan",
      "City": "New York",
      "State": "New York",
      "Zipcode": "Manhattan"
    },
    {
      "Name": "Hammels",
      "Borough": "Queens",
      "City": "New York",
      "State": "New York",
      "Zipcode": "Queens"
    },
    {
      "Name": "Marine Park",
      "Borough": "Brooklyn",
      "City": "New York",
      "State": "New York",
      "Zipcode": "Brooklyn"
    },
    {
      "Name": "Somerville",
      "Borough": "Queens",
      "City": "New York",
      "State": "New York",
      "Zipcode": "Queens"
    },
    {
      "Name": "Hunts Point",
      "Borough": "Bronx",
      "City": "New York",
      "State": "New York",
      "Zipcode": "Bronx"
    },
    {
      "Name": "Sutton Place",
      "Borough": "Manhattan",
      "City": "New York",
      "State": "New York",
      "Zipcode": "Manhattan"
    },
    {
      "Name": "Fulton Ferry",
      "Borough": "Brooklyn",
      "City": "New York",
      "State": "New York",
      "Zipcode": "Brooklyn"
    },
    {
      "Name": "Bellerose",
      "Borough": "Queens",
      "City": "New York",
      "State": "New York",
      "Zipcode": "Queens"
    },
    {
      "Name": "Cobble Hill",
      "Borough": "Brooklyn",
      "City": "New York",
      "State": "New York",
      "Zipcode": "Brooklyn"
    },
    {
      "Name": "Rugby",
      "Borough": "Brooklyn",
      "City": "New York",
      "State": "New York",
      "Zipcode": "Brooklyn"
    },
    {
      "Name": "Morris Park",
      "Borough": "Bronx",
      "City": "New York",
      "State": "New York",
      "Zipcode": "Bronx"
    },
    {
      "Name": "Upper East Side",
      "Borough": "Manhattan",
      "City": "New York",
      "State": "New York",
      "Zipcode": "Manhattan"
    },
    {
      "Name": "Richmond Valley",
      "Borough": "Staten Island",
      "City": "New York",
      "State": "New York",
      "Zipcode": "Staten Island"
    },
    {
      "Name": "Kew Gardens",
      "Borough": "Queens",
      "City": "New York",
      "State": "New York",
      "Zipcode": "Queens"
    },
    {
      "Name": "Georgetown",
      "Borough": "Brooklyn",
      "City": "New York",
      "State": "New York",
      "Zipcode": "Brooklyn"
    },
    {
      "Name": "Little Italy",
      "Borough": "Manhattan",
      "City": "New York",
      "State": "New York",
      "Zipcode": "Manhattan"
    },
    {
      "Name": "Castleton Corners",
      "Borough": "Staten Island",
      "City": "New York",
      "State": "New York",
      "Zipcode": "Staten Island"
    },
    {
      "Name": "Williamsburg",
      "Borough": "Brooklyn",
      "City": "New York",
      "State": "New York",
      "Zipcode": "Brooklyn"
    },
    {
      "Name": "Mott Haven",
      "Borough": "Bronx",
      "City": "New York",
      "State": "New York",
      "Zipcode": "Bronx"
    },
    {
      "Name": "Manhattan Terrace",
      "Borough": "Brooklyn",
      "City": "New York",
      "State": "New York",
      "Zipcode": "Brooklyn"
    },
    {
      "Name": "Pleasant Plains",
      "Borough": "Staten Island",
      "City": "New York",
      "State": "New York",
      "Zipcode": "Staten Island"
    },
    {
      "Name": "Stapleton",
      "Borough": "Staten Island",
      "City": "New York",
      "State": "New York",
      "Zipcode": "Staten Island"
    },
    {
      "Name": "Woodrow",
      "Borough": "Staten Island",
      "City": "New York",
      "State": "New York",
      "Zipcode": "Staten Island"
    },
    {
      "Name": "Livingston",
      "Borough": "Staten Island",
      "City": "New York",
      "State": "New York",
      "Zipcode": "Staten Island"
    },
    {
      "Name": "Brighton Beach",
      "Borough": "Brooklyn",
      "City": "New York",
      "State": "New York",
      "Zipcode": "Brooklyn"
    },
    {
      "Name": "Homecrest",
      "Borough": "Brooklyn",
      "City": "New York",
      "State": "New York",
      "Zipcode": "Brooklyn"
    },
    {
      "Name": "Mount Eden",
      "Borough": "Bronx",
      "City": "New York",
      "State": "New York",
      "Zipcode": "Bronx"
    },
    {
      "Name": "Old Town",
      "Borough": "Staten Island",
      "City": "New York",
      "State": "New York",
      "Zipcode": "Staten Island"
    },
    {
      "Name": "Richmond Hill",
      "Borough": "Queens",
      "City": "New York",
      "State": "New York",
      "Zipcode": "Queens"
    },
    {
      "Name": "Windsor Terrace",
      "Borough": "Brooklyn",
      "City": "New York",
      "State": "New York",
      "Zipcode": "Brooklyn"
    },
    {
      "Name": "Gramercy",
      "Borough": "Manhattan",
      "City": "New York",
      "State": "New York",
      "Zipcode": "Manhattan"
    },
    {
      "Name": "University Heights",
      "Borough": "Bronx",
      "City": "New York",
      "State": "New York",
      "Zipcode": "Bronx"
    },
    {
      "Name": "Tudor City",
      "Borough": "Manhattan",
      "City": "New York",
      "State": "New York",
      "Zipcode": "Manhattan"
    },
    {
      "Name": "Murray Hill",
      "Borough": "Manhattan",
      "City": "New York",
      "State": "New York",
      "Zipcode": "Manhattan"
    },
    {
      "Name": "Dyker Heights",
      "Borough": "Brooklyn",
      "City": "New York",
      "State": "New York",
      "Zipcode": "Brooklyn"
    },
    {
      "Name": "Mill Island",
      "Borough": "Brooklyn",
      "City": "New York",
      "State": "New York",
      "Zipcode": "Brooklyn"
    },
    {
      "Name": "Greenpoint",
      "Borough": "Brooklyn",
      "City": "New York",
      "State": "New York",
      "Zipcode": "Brooklyn"
    },
    {
      "Name": "Navy Yard",
      "Borough": "Brooklyn",
      "City": "New York",
      "State": "New York",
      "Zipcode": "Brooklyn"
    },
    {
      "Name": "Wakefield",
      "Borough": "Bronx",
      "City": "New York",
      "State": "New York",
      "Zipcode": "Bronx"
    },
    {
      "Name": "Fox Hills",
      "Borough": "Staten Island",
      "City": "New York",
      "State": "New York",
      "Zipcode": "Staten Island"
    },
    {
      "Name": "Paerdegat Basin",
      "Borough": "Brooklyn",
      "City": "New York",
      "State": "New York",
      "Zipcode": "Brooklyn"
    },
    {
      "Name": "Prospect Park South",
      "Borough": "Brooklyn",
      "City": "New York",
      "State": "New York",
      "Zipcode": "Brooklyn"
    },
    {
      "Name": "Farragut",
      "Borough": "Brooklyn",
      "City": "New York",
      "State": "New York",
      "Zipcode": "Brooklyn"
    },
    {
      "Name": "Lindenwood",
      "Borough": "Queens",
      "City": "New York",
      "State": "New York",
      "Zipcode": "Queens"
    },
    {
      "Name": "Murray Hill",
      "Borough": "Queens",
      "City": "New York",
      "State": "New York",
      "Zipcode": "Queens"
    },
    {
      "Name": "East Elmhurst",
      "Borough": "Queens",
      "City": "New York",
      "State": "New York",
      "Zipcode": "Queens"
    },
    {
      "Name": "Glen Oaks",
      "Borough": "Queens",
      "City": "New York",
      "State": "New York",
      "Zipcode": "Queens"
    },
    {
      "Name": "Forest Hills Gardens",
      "Borough": "Queens",
      "City": "New York",
      "State": "New York",
      "Zipcode": "Queens"
    },
    {
      "Name": "Mapleton",
      "Borough": "Brooklyn",
      "City": "New York",
      "State": "New York",
      "Zipcode": "Brooklyn"
    },
    {
      "Name": "East New York",
      "Borough": "Brooklyn",
      "City": "New York",
      "State": "New York",
      "Zipcode": "Brooklyn"
    },
    {
      "Name": "Chelsea",
      "Borough": "Manhattan",
      "City": "New York",
      "State": "New York",
      "Zipcode": "Manhattan"
    },
    {
      "Name": "Spuyten Duyvil",
      "Borough": "Bronx",
      "City": "New York",
      "State": "New York",
      "Zipcode": "Bronx"
    },
    {
      "Name": "Eastchester",
      "Borough": "Bronx",
      "City": "New York",
      "State": "New York",
      "Zipcode": "Bronx"
    },
    {
      "Name": "Williamsbridge",
      "Borough": "Bronx",
      "City": "New York",
      "State": "New York",
      "Zipcode": "Bronx"
    },
    {
      "Name": "Hollis",
      "Borough": "Queens",
      "City": "New York",
      "State": "New York",
      "Zipcode": "Queens"
    },
    {
      "Name": "East Flatbush",
      "Borough": "Brooklyn",
      "City": "New York",
      "State": "New York",
      "Zipcode": "Brooklyn"
    },
    {
      "Name": "Floral Park",
      "Borough": "Queens",
      "City": "New York",
      "State": "New York",
      "Zipcode": "Queens"
    },
    {
      "Name": "Little Neck",
      "Borough": "Queens",
      "City": "New York",
      "State": "New York",
      "Zipcode": "Queens"
    },
    {
      "Name": "Bedford Stuyvesant",
      "Borough": "Brooklyn",
      "City": "New York",
      "State": "New York",
      "Zipcode": "Brooklyn"
    },
    {
      "Name": "Flushing",
      "Borough": "Queens",
      "City": "New York",
      "State": "New York",
      "Zipcode": "Queens"
    },
    {
      "Name": "Chelsea",
      "Borough": "Staten Island",
      "City": "New York",
      "State": "New York",
      "Zipcode": "Staten Island"
    },
    {
      "Name": "Old Place",
      "Borough": "Staten Island",
      "City": "New York",
      "State": "New York",
      "Zipcode": "Staten Island"
    },
    {
      "Name": "Claremont Village",
      "Borough": "Bronx",
      "City": "New York",
      "State": "New York",
      "Zipcode": "Bronx"
    },
    {
      "Name": "Steinway",
      "Borough": "Queens",
      "City": "New York",
      "State": "New York",
      "Zipcode": "Queens"
    },
    {
      "Name": "Seaside",
      "Borough": "Queens",
      "City": "New York",
      "State": "New York",
      "Zipcode": "Queens"
    },
    {
      "Name": "Schuylerville",
      "Borough": "Bronx",
      "City": "New York",
      "State": "New York",
      "Zipcode": "Bronx"
    },
    {
      "Name": "Travis",
      "Borough": "Staten Island",
      "City": "New York",
      "State": "New York",
      "Zipcode": "Staten Island"
    },
    {
      "Name": "Shore Acres",
      "Borough": "Staten Island",
      "City": "New York",
      "State": "New York",
      "Zipcode": "Staten Island"
    },
    {
      "Name": "Spring Creek",
      "Borough": "Brooklyn",
      "City": "New York",
      "State": "New York",
      "Zipcode": "Brooklyn"
    },
    {
      "Name": "Co op City",
      "Borough": "Bronx",
      "City": "New York",
      "State": "New York",
      "Zipcode": "Bronx"
    },
    {
      "Name": "Herald Square",
      "Borough": "Manhattan",
      "City": "New York",
      "State": "New York",
      "Zipcode": "Manhattan"
    },
    {
      "Name": "Manhattanville",
      "Borough": "Manhattan",
      "City": "New York",
      "State": "New York",
      "Zipcode": "Manhattan"
    },
    {
      "Name": "Clinton",
      "Borough": "Manhattan",
      "City": "New York",
      "State": "New York",
      "Zipcode": "Manhattan"
    },
    {
      "Name": "Randall Manor",
      "Borough": "Staten Island",
      "City": "New York",
      "State": "New York",
      "Zipcode": "Staten Island"
    },
    {
      "Name": "South Side",
      "Borough": "Brooklyn",
      "City": "New York",
      "State": "New York",
      "Zipcode": "Brooklyn"
    },
    {
      "Name": "Willowbrook",
      "Borough": "Staten Island",
      "City": "New York",
      "State": "New York",
      "Zipcode": "Staten Island"
    },
    {
      "Name": "Belle Harbor",
      "Borough": "Queens",
      "City": "New York",
      "State": "New York",
      "Zipcode": "Queens"
    },
    {
      "Name": "Coney Island",
      "Borough": "Brooklyn",
      "City": "New York",
      "State": "New York",
      "Zipcode": "Brooklyn"
    },
    {
      "Name": "Roosevelt Island",
      "Borough": "Manhattan",
      "City": "New York",
      "State": "New York",
      "Zipcode": "Manhattan"
    },
    {
      "Name": "St Albans",
      "Borough": "Queens",
      "City": "New York",
      "State": "New York",
      "Zipcode": "Queens"
    },
    {
      "Name": "Wingate",
      "Borough": "Brooklyn",
      "City": "New York",
      "State": "New York",
      "Zipcode": "Brooklyn"
    },
    {
      "Name": "Heartland Village",
      "Borough": "Staten Island",
      "City": "New York",
      "State": "New York",
      "Zipcode": "Staten Island"
    },
    {
      "Name": "Clinton Hill",
      "Borough": "Brooklyn",
      "City": "New York",
      "State": "New York",
      "Zipcode": "Brooklyn"
    },
    {
      "Name": "Bay Ridge",
      "Borough": "Brooklyn",
      "City": "New York",
      "State": "New York",
      "Zipcode": "Brooklyn"
    },
    {
      "Name": "Gravesend",
      "Borough": "Brooklyn",
      "City": "New York",
      "State": "New York",
      "Zipcode": "Brooklyn"
    },
    {
      "Name": "Egbertville",
      "Borough": "Staten Island",
      "City": "New York",
      "State": "New York",
      "Zipcode": "Staten Island"
    },
    {
      "Name": "City Line",
      "Borough": "Brooklyn",
      "City": "New York",
      "State": "New York",
      "Zipcode": "Brooklyn"
    },
    {
      "Name": "Broad Channel",
      "Borough": "Queens",
      "City": "New York",
      "State": "New York",
      "Zipcode": "Queens"
    },
    {
      "Name": "New Lots",
      "Borough": "Brooklyn",
      "City": "New York",
      "State": "New York",
      "Zipcode": "Brooklyn"
    },
    {
      "Name": "High Bridge",
      "Borough": "Bronx",
      "City": "New York",
      "State": "New York",
      "Zipcode": "Bronx"
    },
    {
      "Name": "Union Square",
      "Borough": "Manhattan",
      "City": "New York",
      "State": "New York",
      "Zipcode": "Manhattan"
    },
    {
      "Name": "Washington Heights",
      "Borough": "Manhattan",
      "City": "New York",
      "State": "New York",
      "Zipcode": "Manhattan"
    },
    {
      "Name": "Bathgate",
      "Borough": "Bronx",
      "City": "New York",
      "State": "New York",
      "Zipcode": "Bronx"
    },
    {
      "Name": "Prospect Heights",
      "Borough": "Brooklyn",
      "City": "New York",
      "State": "New York",
      "Zipcode": "Brooklyn"
    },
    {
      "Name": "Queensboro Hill",
      "Borough": "Queens",
      "City": "New York",
      "State": "New York",
      "Zipcode": "Queens"
    },
    {
      "Name": "Chinatown",
      "Borough": "Manhattan",
      "City": "New York",
      "State": "New York",
      "Zipcode": "Manhattan"
    },
    {
      "Name": "Financial District",
      "Borough": "Manhattan",
      "City": "New York",
      "State": "New York",
      "Zipcode": "Manhattan"
    },
    {
      "Name": "Rosedale",
      "Borough": "Queens",
      "City": "New York",
      "State": "New York",
      "Zipcode": "Queens"
    },
    {
      "Name": "Westchester Square",
      "Borough": "Bronx",
      "City": "New York",
      "State": "New York",
      "Zipcode": "Bronx"
    },
    {
      "Name": "Rossville",
      "Borough": "Staten Island",
      "City": "New York",
      "State": "New York",
      "Zipcode": "Staten Island"
    },
    {
      "Name": "Bellaire",
      "Borough": "Queens",
      "City": "New York",
      "State": "New York",
      "Zipcode": "Queens"
    },
    {
      "Name": "Lower East Side",
      "Borough": "Manhattan",
      "City": "New York",
      "State": "New York",
      "Zipcode": "Manhattan"
    },
    {
      "Name": "Castle Hill",
      "Borough": "Bronx",
      "City": "New York",
      "State": "New York",
      "Zipcode": "Bronx"
    },
    {
      "Name": "Laurelton",
      "Borough": "Queens",
      "City": "New York",
      "State": "New York",
      "Zipcode": "Queens"
    },
    {
      "Name": "New Dorp Beach",
      "Borough": "Staten Island",
      "City": "New York",
      "State": "New York",
      "Zipcode": "Staten Island"
    },
    {
      "Name": "Morrisania",
      "Borough": "Bronx",
      "City": "New York",
      "State": "New York",
      "Zipcode": "Bronx"
    },
    {
      "Name": "Edgemere",
      "Borough": "Queens",
      "City": "New York",
      "State": "New York",
      "Zipcode": "Queens"
    },
    {
      "Name": "Yorkville",
      "Borough": "Manhattan",
      "City": "New York",
      "State": "New York",
      "Zipcode": "Manhattan"
    },
    {
      "Name": "Sea Gate",
      "Borough": "Brooklyn",
      "City": "New York",
      "State": "New York",
      "Zipcode": "Brooklyn"
    },
    {
      "Name": "Oakwood",
      "Borough": "Staten Island",
      "City": "New York",
      "State": "New York",
      "Zipcode": "Staten Island"
    },
    {
      "Name": "Boerum Hill",
      "Borough": "Brooklyn",
      "City": "New York",
      "State": "New York",
      "Zipcode": "Brooklyn"
    },
    {
      "Name": "Rochdale",
      "Borough": "Queens",
      "City": "New York",
      "State": "New York",
      "Zipcode": "Queens"
    },
    {
      "Name": "Howland Hook",
      "Borough": "Staten Island",
      "City": "New York",
      "State": "New York",
      "Zipcode": "Staten Island"
    },
    {
      "Name": "Mount Hope",
      "Borough": "Bronx",
      "City": "New York",
      "State": "New York",
      "Zipcode": "Bronx"
    },
    {
      "Name": "Far Rockaway",
      "Borough": "Queens",
      "City": "New York",
      "State": "New York",
      "Zipcode": "Queens"
    },
    {
      "Name": "Park Slope",
      "Borough": "Brooklyn",
      "City": "New York",
      "State": "New York",
      "Zipcode": "Brooklyn"
    },
    {
      "Name": "Ditmas Park",
      "Borough": "Brooklyn",
      "City": "New York",
      "State": "New York",
      "Zipcode": "Brooklyn"
    },
    {
      "Name": "Arverne",
      "Borough": "Queens",
      "City": "New York",
      "State": "New York",
      "Zipcode": "Queens"
    },
    {
      "Name": "Bergen Beach",
      "Borough": "Brooklyn",
      "City": "New York",
      "State": "New York",
      "Zipcode": "Brooklyn"
    },
    {
      "Name": "Concourse Village",
      "Borough": "Bronx",
      "City": "New York",
      "State": "New York",
      "Zipcode": "Bronx"
    },
    {
      "Name": "Unionport",
      "Borough": "Bronx",
      "City": "New York",
      "State": "New York",
      "Zipcode": "Bronx"
    },
    {
      "Name": "Bloomfield",
      "Borough": "Staten Island",
      "City": "New York",
      "State": "New York",
      "Zipcode": "Staten Island"
    },
    {
      "Name": "Sunnyside Gardens",
      "Borough": "Queens",
      "City": "New York",
      "State": "New York",
      "Zipcode": "Queens"
    },
    {
      "Name": "South Village",
      "Borough": "Manhattan",
      "City": "New York",
      "State": "New York",
      "Zipcode": "Manhattan"
    },
    {
      "Name": "Jamaica Center",
      "Borough": "Queens",
      "City": "New York",
      "State": "New York",
      "Zipcode": "Queens"
    },
    {
      "Name": "Long Island City",
      "Borough": "Queens",
      "City": "New York",
      "State": "New York",
      "Zipcode": "Queens"
    },
    {
      "Name": "Civic Center",
      "Borough": "Manhattan",
      "City": "New York",
      "State": "New York",
      "Zipcode": "Manhattan"
    },
    {
      "Name": "South Beach",
      "Borough": "Staten Island",
      "City": "New York",
      "State": "New York",
      "Zipcode": "Staten Island"
    },
    {
      "Name": "Mill Basin",
      "Borough": "Brooklyn",
      "City": "New York",
      "State": "New York",
      "Zipcode": "Brooklyn"
    },
    {
      "Name": "Norwood",
      "Borough": "Bronx",
      "City": "New York",
      "State": "New York",
      "Zipcode": "Bronx"
    },
    {
      "Name": "Harlem Central",
      "Borough": "Manhattan",
      "City": "New York",
      "State": "New York",
      "Zipcode": "Manhattan"
    },
    {
      "Name": "Elm Park",
      "Borough": "Staten Island",
      "City": "New York",
      "State": "New York",
      "Zipcode": "Staten Island"
    },
    {
      "Name": "Morningside Heights",
      "Borough": "Manhattan",
      "City": "New York",
      "State": "New York",
      "Zipcode": "Manhattan"
    },
    {
      "Name": "Country Club",
      "Borough": "Bronx",
      "City": "New York",
      "State": "New York",
      "Zipcode": "Bronx"
    },
    {
      "Name": "Bronx River",
      "Borough": "Bronx",
      "City": "New York",
      "State": "New York",
      "Zipcode": "Bronx"
    },
    {
      "Name": "Roxbury",
      "Borough": "Queens",
      "City": "New York",
      "State": "New York",
      "Zipcode": "Queens"
    },
    {
      "Name": "Greenwich Village",
      "Borough": "Manhattan",
      "City": "New York",
      "State": "New York",
      "Zipcode": "Manhattan"
    },
    {
      "Name": "Jackson Heights",
      "Borough": "Queens",
      "City": "New York",
      "State": "New York",
      "Zipcode": "Queens"
    },
    {
      "Name": "Midland Beach",
      "Borough": "Staten Island",
      "City": "New York",
      "State": "New York",
      "Zipcode": "Staten Island"
    },
    {
      "Name": "Hillcrest",
      "Borough": "Queens",
      "City": "New York",
      "State": "New York",
      "Zipcode": "Queens"
    },
    {
      "Name": "West Village",
      "Borough": "Manhattan",
      "City": "New York",
      "State": "New York",
      "Zipcode": "Manhattan"
    },
    {
      "Name": "Grant City",
      "Borough": "Staten Island",
      "City": "New York",
      "State": "New York",
      "Zipcode": "Staten Island"
    },
    {
      "Name": "Fordham",
      "Borough": "Bronx",
      "City": "New York",
      "State": "New York",
      "Zipcode": "Bronx"
    },
    {
      "Name": "West Brighton",
      "Borough": "Brooklyn",
      "City": "New York",
      "State": "New York",
      "Zipcode": "Brooklyn"
    },
    {
      "Name": "Port Morris",
      "Borough": "Bronx",
      "City": "New York",
      "State": "New York",
      "Zipcode": "Bronx"
    },
    {
      "Name": "Harlem East",
      "Borough": "Manhattan",
      "City": "New York",
      "State": "New York",
      "Zipcode": "Manhattan"
    },
    {
      "Name": "Rockaway Park",
      "Borough": "Queens",
      "City": "New York",
      "State": "New York",
      "Zipcode": "Queens"
    },
    {
      "Name": "Astoria",
      "Borough": "Queens",
      "City": "New York",
      "State": "New York",
      "Zipcode": "Queens"
    },
    {
      "Name": "Greenridge",
      "Borough": "Staten Island",
      "City": "New York",
      "State": "New York",
      "Zipcode": "Staten Island"
    },
    {
      "Name": "New Dorp",
      "Borough": "Staten Island",
      "City": "New York",
      "State": "New York",
      "Zipcode": "Staten Island"
    },
    {
      "Name": "Inwood",
      "Borough": "Manhattan",
      "City": "New York",
      "State": "New York",
      "Zipcode": "Manhattan"
    },
    {
      "Name": "NoHo",
      "Borough": "Manhattan",
      "City": "New York",
      "State": "New York",
      "Zipcode": "Manhattan"
    },
    {
      "Name": "Melrose",
      "Borough": "Bronx",
      "City": "New York",
      "State": "New York",
      "Zipcode": "Bronx"
    },
    {
      "Name": "Bay Terrace",
      "Borough": "Queens",
      "City": "New York",
      "State": "New York",
      "Zipcode": "Queens"
    },
    {
      "Name": "Clearview",
      "Borough": "Queens",
      "City": "New York",
      "State": "New York",
      "Zipcode": "Queens"
    },
    {
      "Name": "South Jamaica",
      "Borough": "Queens",
      "City": "New York",
      "State": "New York",
      "Zipcode": "Queens"
    },
    {
      "Name": "Cypress Hills",
      "Borough": "Brooklyn",
      "City": "New York",
      "State": "New York",
      "Zipcode": "Brooklyn"
    },
    {
      "Name": "Bronxdale",
      "Borough": "Bronx",
      "City": "New York",
      "State": "New York",
      "Zipcode": "Bronx"
    },
    {
      "Name": "Sunset Park",
      "Borough": "Brooklyn",
      "City": "New York",
      "State": "New York",
      "Zipcode": "Brooklyn"
    },
    {
      "Name": "Lincoln Square",
      "Borough": "Manhattan",
      "City": "New York",
      "State": "New York",
      "Zipcode": "Manhattan"
    },
    {
      "Name": "Charleston",
      "Borough": "Staten Island",
      "City": "New York",
      "State": "New York",
      "Zipcode": "Staten Island"
    },
    {
      "Name": "Brooklyn Heights",
      "Borough": "Brooklyn",
      "City": "New York",
      "State": "New York",
      "Zipcode": "Brooklyn"
    },
    {
      "Name": "Weeksville",
      "Borough": "Brooklyn",
      "City": "New York",
      "State": "New York",
      "Zipcode": "Brooklyn"
    },
    {
      "Name": "Concord",
      "Borough": "Staten Island",
      "City": "New York",
      "State": "New York",
      "Zipcode": "Staten Island"
    },
    {
      "Name": "Westerleigh",
      "Borough": "Staten Island",
      "City": "New York",
      "State": "New York",
      "Zipcode": "Staten Island"
    },
    {
      "Name": "Graniteville",
      "Borough": "Staten Island",
      "City": "New York",
      "State": "New York",
      "Zipcode": "Staten Island"
    },
    {
      "Name": "Briarwood",
      "Borough": "Queens",
      "City": "New York",
      "State": "New York",
      "Zipcode": "Queens"
    },
    {
      "Name": "Ward Hill",
      "Borough": "Staten Island",
      "City": "New York",
      "State": "New York",
      "Zipcode": "Staten Island"
    },
    {
      "Name": "Carnegie Hill",
      "Borough": "Manhattan",
      "City": "New York",
      "State": "New York",
      "Zipcode": "Manhattan"
    },
    {
      "Name": "Upper West Side",
      "Borough": "Manhattan",
      "City": "New York",
      "State": "New York",
      "Zipcode": "Manhattan"
    },
    {
      "Name": "North Side",
      "Borough": "Brooklyn",
      "City": "New York",
      "State": "New York",
      "Zipcode": "Brooklyn"
    },
    {
      "Name": "Edenwald",
      "Borough": "Bronx",
      "City": "New York",
      "State": "New York",
      "Zipcode": "Bronx"
    },
    {
      "Name": "Morris Heights",
      "Borough": "Bronx",
      "City": "New York",
      "State": "New York",
      "Zipcode": "Bronx"
    },
    {
      "Name": "Flatbush",
      "Borough": "Brooklyn",
      "City": "New York",
      "State": "New York",
      "Zipcode": "Brooklyn"
    },
    {
      "Name": "Howard Beach",
      "Borough": "Queens",
      "City": "New York",
      "State": "New York",
      "Zipcode": "Queens"
    },
    {
      "Name": "Borough Park",
      "Borough": "Brooklyn",
      "City": "New York",
      "State": "New York",
      "Zipcode": "Brooklyn"
    },
    {
      "Name": "Middle Village",
      "Borough": "Queens",
      "City": "New York",
      "State": "New York",
      "Zipcode": "Queens"
    },
    {
      "Name": "Dongan Hills",
      "Borough": "Staten Island",
      "City": "New York",
      "State": "New York",
      "Zipcode": "Staten Island"
    },
    {
      "Name": "Bayswater",
      "Borough": "Queens",
      "City": "New York",
      "State": "New York",
      "Zipcode": "Queens"
    },
    {
      "Name": "Lenox Hill",
      "Borough": "Manhattan",
      "City": "New York",
      "State": "New York",
      "Zipcode": "Manhattan"
    },
    {
      "Name": "Bensonhurst",
      "Borough": "Brooklyn",
      "City": "New York",
      "State": "New York",
      "Zipcode": "Brooklyn"
    },
    {
      "Name": "Sheepshead Bay",
      "Borough": "Brooklyn",
      "City": "New York",
      "State": "New York",
      "Zipcode": "Brooklyn"
    },
    {
      "Name": "Ridgewood",
      "Borough": "Queens",
      "City": "New York",
      "State": "New York",
      "Zipcode": "Queens"
    },
    {
      "Name": "Rego Park",
      "Borough": "Queens",
      "City": "New York",
      "State": "New York",
      "Zipcode": "Queens"
    },
    {
      "Name": "Prince's Bay",
      "Borough": "Staten Island",
      "City": "New York",
      "State": "New York",
      "Zipcode": "Staten Island"
    },
    {
      "Name": "Pelham Parkway",
      "Borough": "Bronx",
      "City": "New York",
      "State": "New York",
      "Zipcode": "Bronx"
    },
    {
      "Name": "Carroll Gardens",
      "Borough": "Brooklyn",
      "City": "New York",
      "State": "New York",
      "Zipcode": "Brooklyn"
    },
    {
      "Name": "Beechhurst",
      "Borough": "Queens",
      "City": "New York",
      "State": "New York",
      "Zipcode": "Queens"
    },
    {
      "Name": "Edgewater Park",
      "Borough": "Bronx",
      "City": "New York",
      "State": "New York",
      "Zipcode": "Bronx"
    },
    {
      "Name": "Clason Point",
      "Borough": "Bronx",
      "City": "New York",
      "State": "New York",
      "Zipcode": "Bronx"
    },
    {
      "Name": "Fresh Meadows",
      "Borough": "Queens",
      "City": "New York",
      "State": "New York",
      "Zipcode": "Queens"
    },
    {
      "Name": "Sunnyside",
      "Borough": "Staten Island",
      "City": "New York",
      "State": "New York",
      "Zipcode": "Staten Island"
    },
    {
      "Name": "New Brighton",
      "Borough": "Staten Island",
      "City": "New York",
      "State": "New York",
      "Zipcode": "Staten Island"
    },
    {
      "Name": "Silver Lake",
      "Borough": "Staten Island",
      "City": "New York",
      "State": "New York",
      "Zipcode": "Staten Island"
    },
    {
      "Name": "Rosebank",
      "Borough": "Staten Island",
      "City": "New York",
      "State": "New York",
      "Zipcode": "Staten Island"
    },
    {
      "Name": "Brownsville",
      "Borough": "Brooklyn",
      "City": "New York",
      "State": "New York",
      "Zipcode": "Brooklyn"
    },
    {
      "Name": "Jamaica",
      "Borough": "Queens",
      "City": "New York",
      "State": "New York",
      "Zipcode": "Queens"
    },
    {
      "Name": "Manor Heights",
      "Borough": "Staten Island",
      "City": "New York",
      "State": "New York",
      "Zipcode": "Staten Island"
    },
    {
      "Name": "Pelham Bay",
      "Borough": "Bronx",
      "City": "New York",
      "State": "New York",
      "Zipcode": "Bronx"
    },
    {
      "Name": "Throgs Neck",
      "Borough": "Bronx",
      "City": "New York",
      "State": "New York",
      "Zipcode": "Bronx"
    },
    {
      "Name": "Allerton",
      "Borough": "Bronx",
      "City": "New York",
      "State": "New York",
      "Zipcode": "Bronx"
    },
    {
      "Name": "Concourse",
      "Borough": "Bronx",
      "City": "New York",
      "State": "New York",
      "Zipcode": "Bronx"
    },
    {
      "Name": "Tribeca",
      "Borough": "Manhattan",
      "City": "New York",
      "State": "New York",
      "Zipcode": "Manhattan"
    },
    {
      "Name": "Flatlands",
      "Borough": "Brooklyn",
      "City": "New York",
      "State": "New York",
      "Zipcode": "Brooklyn"
    },
    {
      "Name": "North Riverdale",
      "Borough": "Bronx",
      "City": "New York",
      "State": "New York",
      "Zipcode": "Bronx"
    },
    {
      "Name": "Crown Heights",
      "Borough": "Brooklyn",
      "City": "New York",
      "State": "New York",
      "Zipcode": "Brooklyn"
    },
    {
      "Name": "West Brighton",
      "Borough": "Staten Island",
      "City": "New York",
      "State": "New York",
      "Zipcode": "Staten Island"
    },
    {
      "Name": "Manhattan Beach",
      "Borough": "Brooklyn",
      "City": "New York",
      "State": "New York",
      "Zipcode": "Brooklyn"
    },
    {
      "Name": "Fort Hamilton",
      "Borough": "Brooklyn",
      "City": "New York",
      "State": "New York",
      "Zipcode": "Brooklyn"
    },
    {
      "Name": "Port Richmond",
      "Borough": "Staten Island",
      "City": "New York",
      "State": "New York",
      "Zipcode": "Staten Island"
    },
    {
      "Name": "Utopia",
      "Borough": "Queens",
      "City": "New York",
      "State": "New York",
      "Zipcode": "Queens"
    },
    {
      "Name": "Woodlawn",
      "Borough": "Bronx",
      "City": "New York",
      "State": "New York",
      "Zipcode": "Bronx"
    },
    {
      "Name": "Glendale",
      "Borough": "Queens",
      "City": "New York",
      "State": "New York",
      "Zipcode": "Queens"
    },
    {
      "Name": "South Corona",
      "Borough": "Queens",
      "City": "New York",
      "State": "New York",
      "Zipcode": "Queens"
    },
    {
      "Name": "Douglaston",
      "Borough": "Queens",
      "City": "New York",
      "State": "New York",
      "Zipcode": "Queens"
    },
    {
      "Name": "Flatiron",
      "Borough": "Manhattan",
      "City": "New York",
      "State": "New York",
      "Zipcode": "Manhattan"
    },
    {
      "Name": "Richmond Town",
      "Borough": "Staten Island",
      "City": "New York",
      "State": "New York",
      "Zipcode": "Staten Island"
    },
    {
      "Name": "Bayside",
      "Borough": "Queens",
      "City": "New York",
      "State": "New York",
      "Zipcode": "Queens"
    },
    {
      "Name": "Arden Heights",
      "Borough": "Staten Island",
      "City": "New York",
      "State": "New York",
      "Zipcode": "Staten Island"
    },
    {
      "Name": "Queens Village",
      "Borough": "Queens",
      "City": "New York",
      "State": "New York",
      "Zipcode": "Queens"
    },
    {
      "Name": "Huguenot",
      "Borough": "Staten Island",
      "City": "New York",
      "State": "New York",
      "Zipcode": "Staten Island"
    },
    {
      "Name": "Blissville",
      "Borough": "Queens",
      "City": "New York",
      "State": "New York",
      "Zipcode": "Queens"
    },
    {
      "Name": "Highland Park",
      "Borough": "Brooklyn",
      "City": "New York",
      "State": "New York",
      "Zipcode": "Brooklyn"
    },
    {
      "Name": "East Village",
      "Borough": "Manhattan",
      "City": "New York",
      "State": "New York",
      "Zipcode": "Manhattan"
    },
    {
      "Name": "Bedford Park",
      "Borough": "Bronx",
      "City": "New York",
      "State": "New York",
      "Zipcode": "Bronx"
    },
    {
      "Name": "Bushwick",
      "Borough": "Brooklyn",
      "City": "New York",
      "State": "New York",
      "Zipcode": "Brooklyn"
    },
    {
      "Name": "Maspeth",
      "Borough": "Queens",
      "City": "New York",
      "State": "New York",
      "Zipcode": "Queens"
    },
    {
      "Name": "Clifton",
      "Borough": "Staten Island",
      "City": "New York",
      "State": "New York",
      "Zipcode": "Staten Island"
    },
    {
      "Name": "Lefrak City",
      "Borough": "Queens",
      "City": "New York",
      "State": "New York",
      "Zipcode": "Queens"
    },
    {
      "Name": "East Williamsburg",
      "Borough": "Brooklyn",
      "City": "New York",
      "State": "New York",
      "Zipcode": "Brooklyn"
    },
    {
      "Name": "Tompkinsville",
      "Borough": "Staten Island",
      "City": "New York",
      "State": "New York",
      "Zipcode": "Staten Island"
    },
    {
      "Name": "Park Hill",
      "Borough": "Staten Island",
      "City": "New York",
      "State": "New York",
      "Zipcode": "Staten Island"
    },
    {
      "Name": "Belmont",
      "Borough": "Bronx",
      "City": "New York",
      "State": "New York",
      "Zipcode": "Bronx"
    },
    {
      "Name": "East Tremont",
      "Borough": "Bronx",
      "City": "New York",
      "State": "New York",
      "Zipcode": "Bronx"
    },
    {
      "Name": "Midwood",
      "Borough": "Brooklyn",
      "City": "New York",
      "State": "New York",
      "Zipcode": "Brooklyn"
    },
    {
      "Name": "Annadale",
      "Borough": "Staten Island",
      "City": "New York",
      "State": "New York",
      "Zipcode": "Staten Island"
    },
    {
      "Name": "South Ozone Park",
      "Borough": "Queens",
      "City": "New York",
      "State": "New York",
      "Zipcode": "Queens"
    },
    {
      "Name": "Jamaica Hills",
      "Borough": "Queens",
      "City": "New York",
      "State": "New York",
      "Zipcode": "Queens"
    },
    {
      "Name": "Sunnyside",
      "Borough": "Queens",
      "City": "New York",
      "State": "New York",
      "Zipcode": "Queens"
    },
    {
      "Name": "Breezy Point",
      "Borough": "Queens",
      "City": "New York",
      "State": "New York",
      "Zipcode": "Queens"
    },
    {
      "Name": "West Farms",
      "Borough": "Bronx",
      "City": "New York",
      "State": "New York",
      "Zipcode": "Bronx"
    },
    {
      "Name": "Tottenville",
      "Borough": "Staten Island",
      "City": "New York",
      "State": "New York",
      "Zipcode": "Staten Island"
    },
    {
      "Name": "Pomonok",
      "Borough": "Queens",
      "City": "New York",
      "State": "New York",
      "Zipcode": "Queens"
    },
    {
      "Name": "Kew Gardens Hills",
      "Borough": "Queens",
      "City": "New York",
      "State": "New York",
      "Zipcode": "Queens"
    },
    {
      "Name": "Arrochar",
      "Borough": "Staten Island",
      "City": "New York",
      "State": "New York",
      "Zipcode": "Staten Island"
    },
    {
      "Name": "Bronx Park South",
      "Borough": "Bronx",
      "City": "New York",
      "State": "New York",
      "Zipcode": "Bronx"
    },
    {
      "Name": "Remsen Village",
      "Borough": "Brooklyn",
      "City": "New York",
      "State": "New York",
      "Zipcode": "Brooklyn"
    },
    {
      "Name": "Fort Greene",
      "Borough": "Brooklyn",
      "City": "New York",
      "State": "New York",
      "Zipcode": "Brooklyn"
    },
    {
      "Name": "Eltingville",
      "Borough": "Staten Island",
      "City": "New York",
      "State": "New York",
      "Zipcode": "Staten Island"
    },
    {
      "Name": "Soundview",
      "Borough": "Bronx",
      "City": "New York",
      "State": "New York",
      "Zipcode": "Bronx"
    },
    {
      "Name": "Turtle Bay",
      "Borough": "Manhattan",
      "City": "New York",
      "State": "New York",
      "Zipcode": "Manhattan"
    },
    {
      "Name": "Todt Hill",
      "Borough": "Staten Island",
      "City": "New York",
      "State": "New York",
      "Zipcode": "Staten Island"
    },
    {
      "Name": "Red Hook",
      "Borough": "Brooklyn",
      "City": "New York",
      "State": "New York",
      "Zipcode": "Brooklyn"
    },
    {
      "Name": "Ozone Park",
      "Borough": "Queens",
      "City": "New York",
      "State": "New York",
      "Zipcode": "Queens"
    },
    {
      "Name": "Kensington",
      "Borough": "Brooklyn",
      "City": "New York",
      "State": "New York",
      "Zipcode": "Brooklyn"
    },
    {
      "Name": "Marble Hill",
      "Borough": "Bronx",
      "City": "New York",
      "State": "New York",
      "Zipcode": "Bronx"
    },
    {
      "Name": "St George",
      "Borough": "Staten Island",
      "City": "New York",
      "State": "New York",
      "Zipcode": "Staten Island"
    },
    {
      "Name": "Olinville",
      "Borough": "Bronx",
      "City": "New York",
      "State": "New York",
      "Zipcode": "Bronx"
    },
    {
      "Name": "Baychester",
      "Borough": "Bronx",
      "City": "New York",
      "State": "New York",
      "Zipcode": "Bronx"
    },
    {
      "Name": "Great Kills",
      "Borough": "Staten Island",
      "City": "New York",
      "State": "New York",
      "Zipcode": "Staten Island"
    },
    {
      "Name": "New Hyde Park",
      "Borough": "Queens",
      "City": "New York",
      "State": "New York",
      "Zipcode": "Queens"
    },
    {
      "Name": "Grymes Hill",
      "Borough": "Staten Island",
      "City": "New York",
      "State": "New York",
      "Zipcode": "Staten Island"
    },
    {
      "Name": "Bulls Head",
      "Borough": "Staten Island",
      "City": "New York",
      "State": "New York",
      "Zipcode": "Staten Island"
    },
    {
      "Name": "Starrett City",
      "Borough": "Brooklyn",
      "City": "New York",
      "State": "New York",
      "Zipcode": "Brooklyn"
    },
    {
      "Name": "Mariners Harbor",
      "Borough": "Staten Island",
      "City": "New York",
      "State": "New York",
      "Zipcode": "Staten Island"
    },
    {
      "Name": "College Point",
      "Borough": "Queens",
      "City": "New York",
      "State": "New York",
      "Zipcode": "Queens"
    },
    {
      "Name": "Longwood",
      "Borough": "Bronx",
      "City": "New York",
      "State": "New York",
      "Zipcode": "Bronx"
    },
    {
      "Name": "Grasmere",
      "Borough": "Staten Island",
      "City": "New York",
      "State": "New York",
      "Zipcode": "Staten Island"
    },
    {
      "Name": "Gerritsen Beach",
      "Borough": "Brooklyn",
      "City": "New York",
      "State": "New York",
      "Zipcode": "Brooklyn"
    },
    {
      "Name": "Pelham Gardens",
      "Borough": "Bronx",
      "City": "New York",
      "State": "New York",
      "Zipcode": "Bronx"
    },
    {
      "Name": "Downtown",
      "Borough": "Brooklyn",
      "City": "New York",
      "State": "New York",
      "Zipcode": "Brooklyn"
    },
    {
      "Name": "Times Square",
      "Borough": "Manhattan",
      "City": "New York",
      "State": "New York",
      "Zipcode": "Manhattan"
    },
    {
      "Name": "Jamaica Estates",
      "Borough": "Queens",
      "City": "New York",
      "State": "New York",
      "Zipcode": "Queens"
    },
    {
      "Name": "Ocean Hill",
      "Borough": "Brooklyn",
      "City": "New York",
      "State": "New York",
      "Zipcode": "Brooklyn"
    },
    {
      "Name": "Broadway Junction",
      "Borough": "Brooklyn",
      "City": "New York",
      "State": "New York",
      "Zipcode": "Brooklyn"
    },
    {
      "Name": "Malba",
      "Borough": "Queens",
      "City": "New York",
      "State": "New York",
      "Zipcode": "Queens"
    },
    {
      "Name": "Brookville",
      "Borough": "Queens",
      "City": "New York",
      "State": "New York",
      "Zipcode": "Queens"
    },
    {
      "Name": "Ravenswood",
      "Borough": "Queens",
      "City": "New York",
      "State": "New York",
      "Zipcode": "Queens"
    },
    {
      "Name": "Oakland Gardens",
      "Borough": "Queens",
      "City": "New York",
      "State": "New York",
      "Zipcode": "Queens"
    },
    {
      "Name": "Hunters Point",
      "Borough": "Queens",
      "City": "New York",
      "State": "New York",
      "Zipcode": "Queens"
    },
    {
      "Name": "Stuyvesant Town",
      "Borough": "Manhattan",
      "City": "New York",
      "State": "New York",
      "Zipcode": "Manhattan"
    },
    {
      "Name": "Neponsit",
      "Borough": "Queens",
      "City": "New York",
      "State": "New York",
      "Zipcode": "Queens"
    },
    {
      "Name": "Holliswood",
      "Borough": "Queens",
      "City": "New York",
      "State": "New York",
      "Zipcode": "Queens"
    },
    {
      "Name": "Emerson Hill",
      "Borough": "Staten Island",
      "City": "New York",
      "State": "New York",
      "Zipcode": "Staten Island"
    },
    {
      "Name": "Kingsbridge Heights",
      "Borough": "Bronx",
      "City": "New York",
      "State": "New York",
      "Zipcode": "Bronx"
    },
    {
      "Name": "Riverdale",
      "Borough": "Bronx",
      "City": "New York",
      "State": "New York",
      "Zipcode": "Bronx"
    },
    {
      "Name": "Hamilton Heights",
      "Borough": "Manhattan",
      "City": "New York",
      "State": "New York",
      "Zipcode": "Manhattan"
    },
    {
      "Name": "New Springville",
      "Borough": "Staten Island",
      "City": "New York",
      "State": "New York",
      "Zipcode": "Staten Island"
    },
    {
      "Name": "Kings Highway",
      "Borough": "Brooklyn",
      "City": "New York",
      "State": "New York",
      "Zipcode": "Brooklyn"
    },
    {
      "Name": "Astoria Heights",
      "Borough": "Queens",
      "City": "New York",
      "State": "New York",
      "Zipcode": "Queens"
    },
    {
      "Name": "Beekman Place",
      "Borough": "Manhattan",
      "City": "New York",
      "State": "New York",
      "Zipcode": "Manhattan"
    },
    {
      "Name": "Auburndale",
      "Borough": "Queens",
      "City": "New York",
      "State": "New York",
      "Zipcode": "Queens"
    },
    {
      "Name": "DUMBO",
      "Borough": "Brooklyn",
      "City": "New York",
      "State": "New York",
      "Zipcode": "Brooklyn"
    },
    {
      "Name": "Canarsie",
      "Borough": "Brooklyn",
      "City": "New York",
      "State": "New York",
      "Zipcode": "Brooklyn"
    },
    {
      "Name": "Plum Beach",
      "Borough": "Brooklyn",
      "City": "New York",
      "State": "New York",
      "Zipcode": "Brooklyn"
    },
    {
      "Name": "SoHo",
      "Borough": "Manhattan",
      "City": "New York",
      "State": "New York",
      "Zipcode": "Manhattan"
    },
    {
      "Name": "Vinegar Hill",
      "Borough": "Brooklyn",
      "City": "New York",
      "State": "New York",
      "Zipcode": "Brooklyn"
    },
    {
      "Name": "North Corona",
      "Borough": "Queens",
      "City": "New York",
      "State": "New York",
      "Zipcode": "Queens"
    },
    {
      "Name": "Parkchester",
      "Borough": "Bronx",
      "City": "New York",
      "State": "New York",
      "Zipcode": "Bronx"
    },
    {
      "Name": "Van Nest",
      "Borough": "Bronx",
      "City": "New York",
      "State": "New York",
      "Zipcode": "Bronx"
    },
    {
      "Name": "Kingsbridge",
      "Borough": "Bronx",
      "City": "New York",
      "State": "New York",
      "Zipcode": "Bronx"
    },
    {
      "Name": "Stuyvesant Heights",
      "Borough": "Brooklyn",
      "City": "New York",
      "State": "New York",
      "Zipcode": "Brooklyn"
    }
  ]
}